UNKNOWN                 
1 81036U          24193.27130183  .00007139  00000+0  15175-1 0  9991
2 81036  66.0685 301.6499 2637474 297.1674  38.4847  9.25052225354460
UNKNOWN                 
1 81052U          24197.85545576  .00008439  00000+0  24397-2 0  9994
2 81052  65.7753 240.0744 0603756 199.6085 158.0834 13.72470147529356
UNKNOWN                 
1 81069U          24197.89448770  .00004693  00000+0  68604-2 0  9991
2 81069 100.3296  65.4318 0058914 223.2559 136.3941 13.54506331446056
UNKNOWN                 
1 81078U          24198.39690389  .00000376  00000+0  12478-1 0  9993
2 81078  65.1173 352.9785 0179272 121.5789 267.2042 11.22078996436909
UNKNOWN                 
1 81111U          24198.06876492  .00043186  00000+0  77910-2 0  9995
2 81111  62.8721 130.8230 4028242 337.2113   9.0499  7.27548502233705
UNKNOWN                 
1 81123U 70025    24198.07081507  .00001377  00000+0  13801-2 0  9993
2 81123 100.0075 244.7532 0001479 333.9139  26.1936 13.79732664535254
UNKNOWN                 
1 81134U          24198.36679265  .00000229  00000+0  81734-3 0  9993
2 81134  90.2514 352.3182 0023641 297.5854  62.2863 12.92705604396146
UNKNOWN                 
1 81161U          24197.19659970  .00000927  00000+0  10316-2 0  9996
2 81161 100.4105 346.6250 0064580 151.3442 209.1276 13.73685843485292
UNKNOWN                 
1 81219U 81053    24196.27613236  .00000809  00000+0  75241-3 0  9998
2 81219  82.9258  33.7975 0020828 228.3346 131.6031 13.80892673536218
UNKNOWN                 
1 81254U 70025    24197.17953009  .00006664  00000+0  46577-2 0  9993
2 81254 100.3829 184.1865 0072423 350.6471   9.3335 13.97599845540778
UNKNOWN                 
1 81264U          24198.11278474  .00034817  00000+0  39261-2 0  9994
2 81264  99.4278 333.4550 0065413  96.9123 263.9534 14.84923170 11940
UNKNOWN                 
1 81279U          24197.70553865  .00002998  00000+0  11964-2 0  9999
2 81279  98.1690 291.8955 0215769  90.8384 271.7520 14.17238731389565
UNKNOWN                 
1 81301U          24197.13771811  .00000340  00000+0  41144-3 0  9998
2 81301  66.7592  86.8654 0094970 220.7168 292.3915 13.76157552535390
UNKNOWN                 
1 81311U 90105    24198.33629690  .00000815  00000+0  18033-3 0  9992
2 81311  98.7975 223.6587 0133406 253.2512 118.2206 14.55020403564741
UNKNOWN                 
1 81317U 80089    24196.53829000  .00000083  00000+0  24791-3 0  9990
2 81317  67.1356 232.8943 0207219  33.8327  39.0633 13.37600229519583
UNKNOWN                 
1 81323U          24195.73855653  .00014242  00000+0  23520-2 0  9996
2 81323  65.7608  11.9267 0432056 229.2791 127.0024 14.23651796 38796
UNKNOWN                 
1 81341U          24196.47454699  .00007279  00000+0  19172-1 0  9992
2 81341  99.5148 199.9562 0386108 237.8537 118.4559 12.93026737456588
UNKNOWN                 
1 81342U          24192.67982039  .00006812  00000+0  32910-2 0  9993
2 81342  70.8939 336.2168 0144601  73.1374 288.5547 14.13546415544192
UNKNOWN                 
1 81343U          24198.18859808  .00008288  00000+0  78230-3 0  9998
2 81343  85.8760 112.4791 0007743 326.9909  33.0834 14.93605531377228
UNKNOWN                 
1 81357U          24197.55824353  .00113653  00000+0  28572-2 0  9996
2 81357  97.3656  55.6087 0066879 285.9507  73.4376 15.37222956459601
UNKNOWN                 
1 81359U          24194.46240174  .00000921  00000+0  94962-3 0  9998
2 81359  66.7972 211.0387 0122600 314.4163  44.6923 13.77194696534069
UNKNOWN                 
1 81366U          24191.37107845  .00001379  00000+0  49396-3 0  9999
2 81366  65.8815 223.8627 0736546 331.6475  24.6260 13.42180605996148
UNKNOWN                 
1 81371U          24197.08599668  .00005611  00000+0  10376-2 0  9995
2 81371  98.8595 247.6677 0079744 162.3007 198.1000 14.63772959566217
UNKNOWN                 
1 81386U          24197.80858731  .00010008  00000+0  40041-2 0  9998
2 81386  71.0529  25.5630 0108868 173.6190 186.6356 14.25334846550534
UNKNOWN                 
1 81390U          24196.51366100  .00000402  00000+0  34082-2 0  9999
2 81390 103.1264  44.6369 0178251 329.8045  29.2834 12.35431603436332
UNKNOWN                 
1 81392U          24198.09585590  .00004703  00000+0  49336-2 0  9998
2 81392 100.4286 130.3909 0039108 273.1834 100.8734 13.75211859531240
UNKNOWN                 
1 81402U          24198.10117186  .00036226  00000+0  80060-2 0  9998
2 81402  98.6933 247.8175 0008255 138.6879 221.4943 14.57093777372794
UNKNOWN                 
1 81405U          24196.84504666  .00002427  00000+0  19243-2 0  9994
2 81405  99.5070 230.6485 0165178 158.8492 201.9598 13.86188994502180
UNKNOWN                 
1 81406U          24197.80075338  .00001684  00000+0  71692-3 0  9992
2 81406  65.8131 230.4141 0876895 188.9280 169.5237 13.08758953466197
UNKNOWN                 
1 81409U 87068    24196.18500333  .00043981  00000+0  78854-2 0  9994
2 81409  82.6424 259.8891 0041120 156.0294 204.2839 14.65982739555576
UNKNOWN                 
1 81425U          24190.05799813  .00004345  00000+0  46458-2 0  9992
2 81425  99.4689 274.3227 0075154  16.4613 343.8950 13.73135850370353
UNKNOWN                 
1 81427U          24195.45505893  .00001187  00000+0  73408-3 0  9993
2 81427  98.8027  87.2832 0087836  52.6961 308.2173 14.05258546479069
UNKNOWN                 
1 81439U          24198.00417468  .00000796  00000+0  23561-2 0  9999
2 81439  67.1605  56.7847 0602758 160.9927 201.4681 12.62064551196922
UNKNOWN                 
1 81449U 85042    24197.84630113  .00021772  00000+0  50793-2 0  9998
2 81449  66.8048 354.1932 0043903 197.6286 162.3304 14.54145377557619
UNKNOWN                 
1 81478U          24198.66086890  .00007569  00000+0  30642-2 0  9998
2 81478  98.9766  93.5103 0162135  42.1948  21.4074 14.21137503549713
UNKNOWN                 
1 81488U 75052    24198.09481410  .00000305  00000+0  49999-3 0  9999
2 81488 100.0725  55.4712 0043695 194.0638 318.9288 13.56051664526861
UNKNOWN                 
1 81497U          24195.05190007  .00005912  00000+0  60450-2 0  9995
2 81497 100.3343  36.4842 0029054 261.8906 250.4872 13.76731311144835
UNKNOWN                 
1 81499U          24198.13476690  .00004232  00000+0  13073-2 0  9997
2 81499  74.0524  98.6686 0003093 245.5766 114.5067 14.41625614408097
UNKNOWN                 
1 81535U          24196.11018633  .00004049  00000+0  17392-2 0  9997
2 81535  98.1917 315.3915 0243269 200.7663 158.3494 14.10572496314478
UNKNOWN                 
1 81536U 73086    24198.32568483  .00000593  00000+0  39341-2 0  9998
2 81536 102.0076  46.8225 0014832 162.2398  14.6569 12.55035915487250
UNKNOWN                 
1 81537U 93016    24194.47658571  .00000416  00000+0  27218-3 0  9999
2 81537  71.0400 100.9610 0079193 214.1970 145.4035 14.06395344547577
UNKNOWN                 
1 81552U          24197.42079500  .00001146  00000+0  25734-2 0  9995
2 81552  99.0173 190.3849 0261746 172.9228 187.5700 13.17018741511382
UNKNOWN                 
1 81569U          24198.25626726  .00000317  00000+0  14482-2 0  9990
2 81569  28.0716 207.4778 0316366 103.8122 259.7797 12.46391011488589
UNKNOWN                 
1 81579U          24198.21316081  .00122652  00000+0  32301-1 0  9993
2 81579 100.1130 298.0775 0123391 103.0025 258.4970 14.43801537540051
UNKNOWN                 
1 81599U          24197.78166743  .00001689  00000+0  31509-2 0  9990
2 81599  67.2984 314.1459 0245582  94.7230  57.6660 13.30404631516544
UNKNOWN                 
1 81605U          24196.81953175  .00002655  00000+0  11551-1 0  9992
2 81605  56.4361 232.8623 0150757 182.3164 177.7078 12.79904042120113
UNKNOWN                 
1 81614U 76077    24198.30586413  .00005964  00000+0  38304-1 0  9993
2 81614 101.8102 207.1988 0418688  28.8369 333.5156 12.29814163474537
UNKNOWN                 
1 81615U 92021    24198.19544863  .00009148  00000+0  32386-2 0  9994
2 81615  65.8280 177.7360 0798775  12.6508 349.3337 13.28780880514331
UNKNOWN                 
1 81617U 73086    24197.95857090  .00000423  00000+0  27867-2 0  9993
2 81617 101.2568  29.3242 0037002 172.4029 187.7614 12.56952790488412
UNKNOWN                 
1 81624U          24196.57218712  .00010205  00000+0  20197-2 0  9994
2 81624  66.9853 142.3160 0088203 300.3913  58.8505 14.60162950564030
UNKNOWN                 
1 81640U          24198.03931175  .00000175  00000+0  20624-3 0  9991
2 81640  65.8264 103.7633 0996086 286.2498  63.1290 12.56367316445398
UNKNOWN                 
1 81652U 76077    24197.87993385  .00000775  00000+0  96797-3 0  9993
2 81652 102.1588 333.3351 0371747  69.7679  77.3128 13.43034019509496
UNKNOWN                 
1 81667U          24198.19464215  .00003869  00000+0  11718-2 0  9999
2 81667  74.0432 275.9385 0018319 340.0346  20.0091 14.42523184382280
UNKNOWN                 
1 81674U          24198.07818414  .00001238  00000+0  77392-3 0  9997
2 81674  66.8217 218.2333 0036941 244.4771 148.8151 14.07669568541215
UNKNOWN                 
1 81683U          24198.09860868  .00006299  00000+0  16051-2 0  9995
2 81683  81.2199 115.4749 0030255  65.0493 295.3838 14.50247803561050
UNKNOWN                 
1 81693U 73086    24197.55450042  .00000854  00000+0  65597-2 0  9999
2 81693 101.0758 310.6095 0364511 335.6729  22.7495 12.24662973904666
UNKNOWN                 
1 81696U          24198.63753875  .00163366  00000+0  35821-2 0  9993
2 81696  97.3751  88.6898 0073896 119.3359 241.5296 15.40592683437281
UNKNOWN                 
1 81745U          24196.92383622  .00003679  00000+0  13025-2 0  9999
2 81745  71.0032  72.6404 0006232 279.5861  80.4567 14.35203681555585
UNKNOWN                 
1 81749U          24188.73905113  .00000294  00000+0  11483-2 0  9994
2 81749  99.7340 286.2880 0365876 275.8198 244.5079 12.77326961495094
UNKNOWN                 
1 81775U          24197.49734802  .00007888  00000+0  30823-2 0  9996
2 81775  82.9235 287.8329 0019667  41.7279 318.5403 14.29368650551332
